0 IRIDIUM 33 DEB
1 34378U 97051FW  13281.57567400  .00005372  00000-0  21670-2 0  3490
2 34378 086.3665 143.8597 0085821 070.0328 352.7213 14.25801656240199
0 IRIDIUM 33 DEB
1 34378U 97051FW  13282.62636650  .00007246  00000-0  29241-2 0  3507
2 34378 086.3667 143.4229 0085765 066.7411 345.7493 14.25822972240344
0 IRIDIUM 33 DEB
1 34378U 97051FW  13286.14842485  .00006635  00000-0  26755-2 0  3534
2 34378 086.3669 141.9588 0085530 055.7212 064.2913 14.25865657240846
0 IRIDIUM 33 DEB
1 34378U 97051FW  13287.39879771  .00007268  00000-0  29307-2 0  3540
2 34378 086.3665 141.4390 0085400 051.7935 002.5414 14.25878434241021
0 IRIDIUM 33 DEB
1 34378U 97051FW  13288.81542177  .00009040  00000-0  36448-2 0  3550
2 34378 086.3660 140.8500 0085308 047.3633 074.2496 14.25905592241229
0 IRIDIUM 33 DEB
1 34378U 97051FW  13290.00408400  .00008598  00000-0  34659-2 0  3564
2 34378 086.3655 140.3558 0085187 043.6317 055.9064 14.25920643241393
0 IRIDIUM 33 DEB
1 34378U 97051FW  13291.34187736  .00008044  00000-0  32413-2 0  3571
2 34378 086.3651 139.7994 0084989 039.3812 083.2235 14.25940719241587
0 IRIDIUM 33 DEB
1 34378U 97051FW  13292.52384348  .00007573  00000-0  30509-2 0  3581
2 34378 086.3649 139.3079 0084857 035.6535 030.6759 14.25957249241751
0 IRIDIUM 33 DEB
1 34378U 97051FW  13293.79774012  .00008533  00000-0  34373-2 0  3593
2 34378 086.3649 138.7781 0084722 031.6454 090.1124 14.25972620241938
0 IRIDIUM 33 DEB
1 34378U 97051FW  13295.06105866  .00008736  00000-0  35188-2 0  3602
2 34378 086.3651 138.2524 0084574 027.6597 095.3306 14.25989928242118
